{
"type": "FeatureCollection",
"name": "other",
"crs": { "type": "name", "properties": { "name": "urn:ogc:def:crs:OGC:1.3:CRS84" } },
"features": [
{ "type": "Feature", "properties": { "Name": "North American:Pacific", "Description": "<html xmlns:fo=\"http://www.w3.org/1999/XSL/Format\" xmlns:msxsl=\"urn:schemas-microsoft-com:xslt\">\n<head>\n<META http-equiv=\"Content-Type\" content=\"text/html\">\n<meta http-equiv=\"content-type\" content=\"text/html; charset=UTF-8\">\n</head>\n<body style=\"margin:0px 0px 0px 0px;overflow:auto;background:#FFFFFF;\">\n<table style=\"font-family:Arial,Verdana,Times;font-size:12px;text-align:left;width:100%;border-collapse:collapse;padding:3px 3px 3px 3px\">\n<tr style=\"text-align:center;font-weight:bold;background:#9CBCE2\">\n<td>North American:Pacific</td>\n</tr>\n<tr>\n<td>\n<table style=\"font-family:Arial,Verdana,Times;font-size:12px;text-align:left;width:100%;border-spacing:0px; padding:3px 3px 3px 3px\">\n<tr>\n<td>NAME</td>\n<td>North American:Pacific</td>\n</tr>\n<tr bgcolor=\"#D4E4F3\">\n<td>LABEL</td>\n<td>Other</td>\n</tr>\n</table>\n</td>\n</tr>\n</table>\n</body>\n</html>", "LABEL": "Other" }, "geometry": { "type": "MultiLineString", "coordinates": [ [ [ -137.106994628499308, 58.437999725606922, 0.0 ], [ -137.819000244565586, 58.924999236625517, 0.0 ], [ -138.352996826542295, 59.335998535304213, 0.0 ], [ -138.860000610739604, 59.762001037517912, 0.0 ], [ -139.364380485271198, 60.060689605940638, 0.0 ], [ -139.471154577122007, 60.120278632552932, 0.0 ], [ -140.042612615879506, 60.347497404381777, 0.0 ], [ -140.133201829200999, 60.373273856503317, 0.0 ], [ -140.224554527369492, 60.374060713830943, 0.0 ], [ -140.908685814898405, 60.322892177132303, 0.0 ], [ -141.068630047438688, 60.316988636916108, 0.0 ], [ -141.217247559827001, 60.335119430717207, 0.0 ], [ -141.598007202370496, 60.401000976813691, 0.0 ], [ -142.278607400810898, 60.455298883536727, 0.0 ], [ -142.39930152214751, 60.454049770180802, 0.0 ], [ -142.538031337576086, 60.428441866299117, 0.0 ], [ -143.332000732347893, 60.206001281533993, 0.0 ], [ -144.287924237413591, 59.913904246383943, 0.0 ], [ -144.682639816674197, 59.732587702760327, 0.0 ], [ -145.081958853718106, 59.497822994835417, 0.0 ], [ -145.608774469666002, 59.228893906628571, 0.0 ] ] ] } },
{ "type": "Feature", "properties": { "Name": "North American:Pacific", "Description": "<html xmlns:fo=\"http://www.w3.org/1999/XSL/Format\" xmlns:msxsl=\"urn:schemas-microsoft-com:xslt\">\n<head>\n<META http-equiv=\"Content-Type\" content=\"text/html\">\n<meta http-equiv=\"content-type\" content=\"text/html; charset=UTF-8\">\n</head>\n<body style=\"margin:0px 0px 0px 0px;overflow:auto;background:#FFFFFF;\">\n<table style=\"font-family:Arial,Verdana,Times;font-size:12px;text-align:left;width:100%;border-collapse:collapse;padding:3px 3px 3px 3px\">\n<tr style=\"text-align:center;font-weight:bold;background:#9CBCE2\">\n<td>North American:Pacific</td>\n</tr>\n<tr>\n<td>\n<table style=\"font-family:Arial,Verdana,Times;font-size:12px;text-align:left;width:100%;border-spacing:0px; padding:3px 3px 3px 3px\">\n<tr>\n<td>NAME</td>\n<td>North American:Pacific</td>\n</tr>\n<tr bgcolor=\"#D4E4F3\">\n<td>LABEL</td>\n<td>Other</td>\n</tr>\n</table>\n</td>\n</tr>\n</table>\n</body>\n</html>", "LABEL": "Other" }, "geometry": { "type": "MultiLineString", "coordinates": [ [ [ -131.59199523918889, 52.258998870901223, 0.0 ], [ -132.16900634786461, 52.696998596308219, 0.0 ], [ -132.714004516295404, 53.126998901578077, 0.0 ] ] ] } },
{ "type": "Feature", "properties": { "Name": "North American:Pacific", "Description": "<html xmlns:fo=\"http://www.w3.org/1999/XSL/Format\" xmlns:msxsl=\"urn:schemas-microsoft-com:xslt\">\n<head>\n<META http-equiv=\"Content-Type\" content=\"text/html\">\n<meta http-equiv=\"content-type\" content=\"text/html; charset=UTF-8\">\n</head>\n<body style=\"margin:0px 0px 0px 0px;overflow:auto;background:#FFFFFF;\">\n<table style=\"font-family:Arial,Verdana,Times;font-size:12px;text-align:left;width:100%;border-collapse:collapse;padding:3px 3px 3px 3px\">\n<tr style=\"text-align:center;font-weight:bold;background:#9CBCE2\">\n<td>North American:Pacific</td>\n</tr>\n<tr>\n<td>\n<table style=\"font-family:Arial,Verdana,Times;font-size:12px;text-align:left;width:100%;border-spacing:0px; padding:3px 3px 3px 3px\">\n<tr>\n<td>NAME</td>\n<td>North American:Pacific</td>\n</tr>\n<tr bgcolor=\"#D4E4F3\">\n<td>LABEL</td>\n<td>Other</td>\n</tr>\n</table>\n</td>\n</tr>\n</table>\n</body>\n</html>", "LABEL": "Other" }, "geometry": { "type": "MultiLineString", "coordinates": [ [ [ -130.850006103798592, 51.611999511468362, 0.0 ], [ -131.177001953277511, 51.886001587203573, 0.0 ] ] ] } },
{ "type": "Feature", "properties": { "Name": "Eurasian:African", "Description": "<html xmlns:fo=\"http://www.w3.org/1999/XSL/Format\" xmlns:msxsl=\"urn:schemas-microsoft-com:xslt\">\n<head>\n<META http-equiv=\"Content-Type\" content=\"text/html\">\n<meta http-equiv=\"content-type\" content=\"text/html; charset=UTF-8\">\n</head>\n<body style=\"margin:0px 0px 0px 0px;overflow:auto;background:#FFFFFF;\">\n<table style=\"font-family:Arial,Verdana,Times;font-size:12px;text-align:left;width:100%;border-collapse:collapse;padding:3px 3px 3px 3px\">\n<tr style=\"text-align:center;font-weight:bold;background:#9CBCE2\">\n<td>Eurasian:African</td>\n</tr>\n<tr>\n<td>\n<table style=\"font-family:Arial,Verdana,Times;font-size:12px;text-align:left;width:100%;border-spacing:0px; padding:3px 3px 3px 3px\">\n<tr>\n<td>NAME</td>\n<td>Eurasian:African</td>\n</tr>\n<tr bgcolor=\"#D4E4F3\">\n<td>LABEL</td>\n<td>Other</td>\n</tr>\n</table>\n</td>\n</tr>\n</table>\n</body>\n</html>", "LABEL": "Other" }, "geometry": { "type": "MultiLineString", "coordinates": [ [ [ -26.71800041238907, 38.41999816928012, 0.0 ], [ -26.829999923257791, 38.277999877592322, 0.0 ] ] ] } },
{ "type": "Feature", "properties": { "Name": "Eurasian:African", "Description": "<html xmlns:fo=\"http://www.w3.org/1999/XSL/Format\" xmlns:msxsl=\"urn:schemas-microsoft-com:xslt\">\n<head>\n<META http-equiv=\"Content-Type\" content=\"text/html\">\n<meta http-equiv=\"content-type\" content=\"text/html; charset=UTF-8\">\n</head>\n<body style=\"margin:0px 0px 0px 0px;overflow:auto;background:#FFFFFF;\">\n<table style=\"font-family:Arial,Verdana,Times;font-size:12px;text-align:left;width:100%;border-collapse:collapse;padding:3px 3px 3px 3px\">\n<tr style=\"text-align:center;font-weight:bold;background:#9CBCE2\">\n<td>Eurasian:African</td>\n</tr>\n<tr>\n<td>\n<table style=\"font-family:Arial,Verdana,Times;font-size:12px;text-align:left;width:100%;border-spacing:0px; padding:3px 3px 3px 3px\">\n<tr>\n<td>NAME</td>\n<td>Eurasian:African</td>\n</tr>\n<tr bgcolor=\"#D4E4F3\">\n<td>LABEL</td>\n<td>Other</td>\n</tr>\n</table>\n</td>\n</tr>\n</table>\n</body>\n</html>", "LABEL": "Other" }, "geometry": { "type": "MultiLineString", "coordinates": [ [ [ -25.538000106819428, 37.818000793302019, 0.0 ], [ -25.632999420087121, 37.722000121808207, 0.0 ] ] ] } },
{ "type": "Feature", "properties": { "Name": "Eurasian:African", "Description": "<html xmlns:fo=\"http://www.w3.org/1999/XSL/Format\" xmlns:msxsl=\"urn:schemas-microsoft-com:xslt\">\n<head>\n<META http-equiv=\"Content-Type\" content=\"text/html\">\n<meta http-equiv=\"content-type\" content=\"text/html; charset=UTF-8\">\n</head>\n<body style=\"margin:0px 0px 0px 0px;overflow:auto;background:#FFFFFF;\">\n<table style=\"font-family:Arial,Verdana,Times;font-size:12px;text-align:left;width:100%;border-collapse:collapse;padding:3px 3px 3px 3px\">\n<tr style=\"text-align:center;font-weight:bold;background:#9CBCE2\">\n<td>Eurasian:African</td>\n</tr>\n<tr>\n<td>\n<table style=\"font-family:Arial,Verdana,Times;font-size:12px;text-align:left;width:100%;border-spacing:0px; padding:3px 3px 3px 3px\">\n<tr>\n<td>NAME</td>\n<td>Eurasian:African</td>\n</tr>\n<tr bgcolor=\"#D4E4F3\">\n<td>LABEL</td>\n<td>Other</td>\n</tr>\n</table>\n</td>\n</tr>\n</table>\n</body>\n</html>", "LABEL": "Other" }, "geometry": { "type": "MultiLineString", "coordinates": [ [ [ -25.267000198300479, 37.769001006791093, 0.0 ], [ -25.35499954219506, 37.662998199607273, 0.0 ] ] ] } },
{ "type": "Feature", "properties": { "Name": "Eurasian:Arabian", "Description": "<html xmlns:fo=\"http://www.w3.org/1999/XSL/Format\" xmlns:msxsl=\"urn:schemas-microsoft-com:xslt\">\n<head>\n<META http-equiv=\"Content-Type\" content=\"text/html\">\n<meta http-equiv=\"content-type\" content=\"text/html; charset=UTF-8\">\n</head>\n<body style=\"margin:0px 0px 0px 0px;overflow:auto;background:#FFFFFF;\">\n<table style=\"font-family:Arial,Verdana,Times;font-size:12px;text-align:left;width:100%;border-collapse:collapse;padding:3px 3px 3px 3px\">\n<tr style=\"text-align:center;font-weight:bold;background:#9CBCE2\">\n<td>Eurasian:Arabian</td>\n</tr>\n<tr>\n<td>\n<table style=\"font-family:Arial,Verdana,Times;font-size:12px;text-align:left;width:100%;border-spacing:0px; padding:3px 3px 3px 3px\">\n<tr>\n<td>NAME</td>\n<td>Eurasian:Arabian</td>\n</tr>\n<tr bgcolor=\"#D4E4F3\">\n<td>LABEL</td>\n<td>Other</td>\n</tr>\n</table>\n</td>\n</tr>\n</table>\n</body>\n</html>", "LABEL": "Other" }, "geometry": { "type": "MultiLineString", "coordinates": [ [ [ 44.020000457655037, 37.097999572921992, 0.0 ], [ 43.646999359033259, 37.40700149552265, 0.0 ], [ 43.175998687389551, 37.685001373414707, 0.0 ], [ 42.797000885082809, 37.991001128799098, 0.0 ], [ 42.289001465045601, 38.21300125080711, 0.0 ], [ 41.839000701521229, 38.354999542494973, 0.0 ], [ 41.236000060754243, 38.616001129348717, 0.0 ], [ 41.026000976863664, 38.84899902378595, 0.0 ] ] ] } },
{ "type": "Feature", "properties": { "Name": "Eurasian:African", "Description": "<html xmlns:fo=\"http://www.w3.org/1999/XSL/Format\" xmlns:msxsl=\"urn:schemas-microsoft-com:xslt\">\n<head>\n<META http-equiv=\"Content-Type\" content=\"text/html\">\n<meta http-equiv=\"content-type\" content=\"text/html; charset=UTF-8\">\n</head>\n<body style=\"margin:0px 0px 0px 0px;overflow:auto;background:#FFFFFF;\">\n<table style=\"font-family:Arial,Verdana,Times;font-size:12px;text-align:left;width:100%;border-collapse:collapse;padding:3px 3px 3px 3px\">\n<tr style=\"text-align:center;font-weight:bold;background:#9CBCE2\">\n<td>Eurasian:African</td>\n</tr>\n<tr>\n<td>\n<table style=\"font-family:Arial,Verdana,Times;font-size:12px;text-align:left;width:100%;border-spacing:0px; padding:3px 3px 3px 3px\">\n<tr>\n<td>NAME</td>\n<td>Eurasian:African</td>\n</tr>\n<tr bgcolor=\"#D4E4F3\">\n<td>LABEL</td>\n<td>Other</td>\n</tr>\n</table>\n</td>\n</tr>\n</table>\n</body>\n</html>", "LABEL": "Other" }, "geometry": { "type": "MultiLineString", "coordinates": [ [ [ -18.124000548886158, 37.465999603698783, 0.0 ], [ -18.6180000301772, 37.306999206947921, 0.0 ], [ -19.681999206897839, 37.025001525999699, 0.0 ] ] ] } },
{ "type": "Feature", "properties": { "Name": "Eurasian:African", "Description": "<html xmlns:fo=\"http://www.w3.org/1999/XSL/Format\" xmlns:msxsl=\"urn:schemas-microsoft-com:xslt\">\n<head>\n<META http-equiv=\"Content-Type\" content=\"text/html\">\n<meta http-equiv=\"content-type\" content=\"text/html; charset=UTF-8\">\n</head>\n<body style=\"margin:0px 0px 0px 0px;overflow:auto;background:#FFFFFF;\">\n<table style=\"font-family:Arial,Verdana,Times;font-size:12px;text-align:left;width:100%;border-collapse:collapse;padding:3px 3px 3px 3px\">\n<tr style=\"text-align:center;font-weight:bold;background:#9CBCE2\">\n<td>Eurasian:African</td>\n</tr>\n<tr>\n<td>\n<table style=\"font-family:Arial,Verdana,Times;font-size:12px;text-align:left;width:100%;border-spacing:0px; padding:3px 3px 3px 3px\">\n<tr>\n<td>NAME</td>\n<td>Eurasian:African</td>\n</tr>\n<tr bgcolor=\"#D4E4F3\">\n<td>LABEL</td>\n<td>Other</td>\n</tr>\n</table>\n</td>\n</tr>\n</table>\n</body>\n</html>", "LABEL": "Other" }, "geometry": { "type": "MultiLineString", "coordinates": [ [ [ -13.67500019110588, 37.395000457405217, 0.0 ], [ -14.411000251760189, 37.209999084690082, 0.0 ], [ -15.14299964861482, 37.020999908019412, 0.0 ] ] ] } },
{ "type": "Feature", "properties": { "Name": "Eurasian:African", "Description": "<html xmlns:fo=\"http://www.w3.org/1999/XSL/Format\" xmlns:msxsl=\"urn:schemas-microsoft-com:xslt\">\n<head>\n<META http-equiv=\"Content-Type\" content=\"text/html\">\n<meta http-equiv=\"content-type\" content=\"text/html; charset=UTF-8\">\n</head>\n<body style=\"margin:0px 0px 0px 0px;overflow:auto;background:#FFFFFF;\">\n<table style=\"font-family:Arial,Verdana,Times;font-size:12px;text-align:left;width:100%;border-collapse:collapse;padding:3px 3px 3px 3px\">\n<tr style=\"text-align:center;font-weight:bold;background:#9CBCE2\">\n<td>Eurasian:African</td>\n</tr>\n<tr>\n<td>\n<table style=\"font-family:Arial,Verdana,Times;font-size:12px;text-align:left;width:100%;border-spacing:0px; padding:3px 3px 3px 3px\">\n<tr>\n<td>NAME</td>\n<td>Eurasian:African</td>\n</tr>\n<tr bgcolor=\"#D4E4F3\">\n<td>LABEL</td>\n<td>Other</td>\n</tr>\n</table>\n</td>\n</tr>\n</table>\n</body>\n</html>", "LABEL": "Other" }, "geometry": { "type": "MultiLineString", "coordinates": [ [ [ -9.97700023677146, 36.65100097661383, 0.0 ], [ -10.428999900924619, 36.391998291288189, 0.0 ], [ -10.92300033549702, 36.097999573121847, 0.0 ], [ -11.5850000377215, 35.851001739938397, 0.0 ] ] ] } },
{ "type": "Feature", "properties": { "Name": "North American:Philippine", "Description": "<html xmlns:fo=\"http://www.w3.org/1999/XSL/Format\" xmlns:msxsl=\"urn:schemas-microsoft-com:xslt\">\n<head>\n<META http-equiv=\"Content-Type\" content=\"text/html\">\n<meta http-equiv=\"content-type\" content=\"text/html; charset=UTF-8\">\n</head>\n<body style=\"margin:0px 0px 0px 0px;overflow:auto;background:#FFFFFF;\">\n<table style=\"font-family:Arial,Verdana,Times;font-size:12px;text-align:left;width:100%;border-collapse:collapse;padding:3px 3px 3px 3px\">\n<tr style=\"text-align:center;font-weight:bold;background:#9CBCE2\">\n<td>North American:Philippine</td>\n</tr>\n<tr>\n<td>\n<table style=\"font-family:Arial,Verdana,Times;font-size:12px;text-align:left;width:100%;border-spacing:0px; padding:3px 3px 3px 3px\">\n<tr>\n<td>NAME</td>\n<td>North American:Philippine</td>\n</tr>\n<tr bgcolor=\"#D4E4F3\">\n<td>LABEL</td>\n<td>Other</td>\n</tr>\n</table>\n</td>\n</tr>\n</table>\n</body>\n</html>", "LABEL": "Other" }, "geometry": { "type": "MultiLineString", "coordinates": [ [ [ 139.233993530477193, 35.013999939046023, 0.0 ], [ 138.673995971636799, 35.034000396401211, 0.0 ] ] ] } },
{ "type": "Feature", "properties": { "Name": "North American:Philippine", "Description": "<html xmlns:fo=\"http://www.w3.org/1999/XSL/Format\" xmlns:msxsl=\"urn:schemas-microsoft-com:xslt\">\n<head>\n<META http-equiv=\"Content-Type\" content=\"text/html\">\n<meta http-equiv=\"content-type\" content=\"text/html; charset=UTF-8\">\n</head>\n<body style=\"margin:0px 0px 0px 0px;overflow:auto;background:#FFFFFF;\">\n<table style=\"font-family:Arial,Verdana,Times;font-size:12px;text-align:left;width:100%;border-collapse:collapse;padding:3px 3px 3px 3px\">\n<tr style=\"text-align:center;font-weight:bold;background:#9CBCE2\">\n<td>North American:Philippine</td>\n</tr>\n<tr>\n<td>\n<table style=\"font-family:Arial,Verdana,Times;font-size:12px;text-align:left;width:100%;border-spacing:0px; padding:3px 3px 3px 3px\">\n<tr>\n<td>NAME</td>\n<td>North American:Philippine</td>\n</tr>\n<tr bgcolor=\"#D4E4F3\">\n<td>LABEL</td>\n<td>Other</td>\n</tr>\n</table>\n</td>\n</tr>\n</table>\n</body>\n</html>", "LABEL": "Other" }, "geometry": { "type": "MultiLineString", "coordinates": [ [ [ 139.923004150021598, 34.713001251506633, 0.0 ], [ 139.429000854705691, 34.860000610140112, 0.0 ] ] ] } },
{ "type": "Feature", "properties": { "Name": "North American:Philippine", "Description": "<html xmlns:fo=\"http://www.w3.org/1999/XSL/Format\" xmlns:msxsl=\"urn:schemas-microsoft-com:xslt\">\n<head>\n<META http-equiv=\"Content-Type\" content=\"text/html\">\n<meta http-equiv=\"content-type\" content=\"text/html; charset=UTF-8\">\n</head>\n<body style=\"margin:0px 0px 0px 0px;overflow:auto;background:#FFFFFF;\">\n<table style=\"font-family:Arial,Verdana,Times;font-size:12px;text-align:left;width:100%;border-collapse:collapse;padding:3px 3px 3px 3px\">\n<tr style=\"text-align:center;font-weight:bold;background:#9CBCE2\">\n<td>North American:Philippine</td>\n</tr>\n<tr>\n<td>\n<table style=\"font-family:Arial,Verdana,Times;font-size:12px;text-align:left;width:100%;border-spacing:0px; padding:3px 3px 3px 3px\">\n<tr>\n<td>NAME</td>\n<td>North American:Philippine</td>\n</tr>\n<tr bgcolor=\"#D4E4F3\">\n<td>LABEL</td>\n<td>Other</td>\n</tr>\n</table>\n</td>\n</tr>\n</table>\n</body>\n</html>", "LABEL": "Other" }, "geometry": { "type": "MultiLineString", "coordinates": [ [ [ 140.869995117281007, 34.528999328656141, 0.0 ], [ 140.440002440959887, 34.631000518758981, 0.0 ], [ 139.923004150021598, 34.713001251506633, 0.0 ] ] ] } },
{ "type": "Feature", "properties": { "Name": "North American:Philippine", "Description": "<html xmlns:fo=\"http://www.w3.org/1999/XSL/Format\" xmlns:msxsl=\"urn:schemas-microsoft-com:xslt\">\n<head>\n<META http-equiv=\"Content-Type\" content=\"text/html\">\n<meta http-equiv=\"content-type\" content=\"text/html; charset=UTF-8\">\n</head>\n<body style=\"margin:0px 0px 0px 0px;overflow:auto;background:#FFFFFF;\">\n<table style=\"font-family:Arial,Verdana,Times;font-size:12px;text-align:left;width:100%;border-collapse:collapse;padding:3px 3px 3px 3px\">\n<tr style=\"text-align:center;font-weight:bold;background:#9CBCE2\">\n<td>North American:Philippine</td>\n</tr>\n<tr>\n<td>\n<table style=\"font-family:Arial,Verdana,Times;font-size:12px;text-align:left;width:100%;border-spacing:0px; padding:3px 3px 3px 3px\">\n<tr>\n<td>NAME</td>\n<td>North American:Philippine</td>\n</tr>\n<tr bgcolor=\"#D4E4F3\">\n<td>LABEL</td>\n<td>Other</td>\n</tr>\n</table>\n</td>\n</tr>\n</table>\n</body>\n</html>", "LABEL": "Other" }, "geometry": { "type": "MultiLineString", "coordinates": [ [ [ 141.882995605063201, 34.213001251606563, 0.0 ], [ 141.440994262575288, 34.355998993159062, 0.0 ], [ 141.104003906355302, 34.438999175771407, 0.0 ] ] ] } },
{ "type": "Feature", "properties": { "Name": "African:Arabian", "Description": "<html xmlns:fo=\"http://www.w3.org/1999/XSL/Format\" xmlns:msxsl=\"urn:schemas-microsoft-com:xslt\">\n<head>\n<META http-equiv=\"Content-Type\" content=\"text/html\">\n<meta http-equiv=\"content-type\" content=\"text/html; charset=UTF-8\">\n</head>\n<body style=\"margin:0px 0px 0px 0px;overflow:auto;background:#FFFFFF;\">\n<table style=\"font-family:Arial,Verdana,Times;font-size:12px;text-align:left;width:100%;border-collapse:collapse;padding:3px 3px 3px 3px\">\n<tr style=\"text-align:center;font-weight:bold;background:#9CBCE2\">\n<td>African:Arabian</td>\n</tr>\n<tr>\n<td>\n<table style=\"font-family:Arial,Verdana,Times;font-size:12px;text-align:left;width:100%;border-spacing:0px; padding:3px 3px 3px 3px\">\n<tr>\n<td>NAME</td>\n<td>African:Arabian</td>\n</tr>\n<tr bgcolor=\"#D4E4F3\">\n<td>LABEL</td>\n<td>Other</td>\n</tr>\n</table>\n</td>\n</tr>\n</table>\n</body>\n</html>", "LABEL": "Other" }, "geometry": { "type": "MultiLineString", "coordinates": [ [ [ 35.570999145594158, 32.75500106814485, 0.0 ], [ 35.647998809597432, 33.231998443473458, 0.0 ], [ 35.726001739288897, 33.709999084490221, 0.0 ], [ 36.023998260511348, 34.096000671094153, 0.0 ], [ 36.325000762974867, 34.481998443673262, 0.0 ], [ 36.395999908369113, 35.284999847564961, 0.0 ], [ 36.430999756133872, 35.751998901228383, 0.0 ], [ 36.412998199407411, 36.022998809747321, 0.0 ] ] ] } },
{ "type": "Feature", "properties": { "Name": "African:Arabian", "Description": "<html xmlns:fo=\"http://www.w3.org/1999/XSL/Format\" xmlns:msxsl=\"urn:schemas-microsoft-com:xslt\">\n<head>\n<META http-equiv=\"Content-Type\" content=\"text/html\">\n<meta http-equiv=\"content-type\" content=\"text/html; charset=UTF-8\">\n</head>\n<body style=\"margin:0px 0px 0px 0px;overflow:auto;background:#FFFFFF;\">\n<table style=\"font-family:Arial,Verdana,Times;font-size:12px;text-align:left;width:100%;border-collapse:collapse;padding:3px 3px 3px 3px\">\n<tr style=\"text-align:center;font-weight:bold;background:#9CBCE2\">\n<td>African:Arabian</td>\n</tr>\n<tr>\n<td>\n<table style=\"font-family:Arial,Verdana,Times;font-size:12px;text-align:left;width:100%;border-spacing:0px; padding:3px 3px 3px 3px\">\n<tr>\n<td>NAME</td>\n<td>African:Arabian</td>\n</tr>\n<tr bgcolor=\"#D4E4F3\">\n<td>LABEL</td>\n<td>Other</td>\n</tr>\n</table>\n</td>\n</tr>\n</table>\n</body>\n</html>", "LABEL": "Other" }, "geometry": { "type": "MultiLineString", "coordinates": [ [ [ 35.308998107976379, 31.3829994204869, 0.0 ], [ 35.470001220280153, 32.00400161708103, 0.0 ] ] ] } },
{ "type": "Feature", "properties": { "Name": "Eurasian:Arabian", "Description": "<html xmlns:fo=\"http://www.w3.org/1999/XSL/Format\" xmlns:msxsl=\"urn:schemas-microsoft-com:xslt\">\n<head>\n<META http-equiv=\"Content-Type\" content=\"text/html\">\n<meta http-equiv=\"content-type\" content=\"text/html; charset=UTF-8\">\n</head>\n<body style=\"margin:0px 0px 0px 0px;overflow:auto;background:#FFFFFF;\">\n<table style=\"font-family:Arial,Verdana,Times;font-size:12px;text-align:left;width:100%;border-collapse:collapse;padding:3px 3px 3px 3px\">\n<tr style=\"text-align:center;font-weight:bold;background:#9CBCE2\">\n<td>Eurasian:Arabian</td>\n</tr>\n<tr>\n<td>\n<table style=\"font-family:Arial,Verdana,Times;font-size:12px;text-align:left;width:100%;border-spacing:0px; padding:3px 3px 3px 3px\">\n<tr>\n<td>NAME</td>\n<td>Eurasian:Arabian</td>\n</tr>\n<tr bgcolor=\"#D4E4F3\">\n<td>LABEL</td>\n<td>Other</td>\n</tr>\n</table>\n</td>\n</tr>\n</table>\n</body>\n</html>", "LABEL": "Other" }, "geometry": { "type": "MultiLineString", "coordinates": [ [ [ 57.056999206148483, 26.048999786810779, 0.0 ], [ 57.12099838216966, 25.55200004576557, 0.0 ], [ 57.345001220629911, 24.788000106719611, 0.0 ], [ 57.83200073254784, 24.443000793052189, 0.0 ] ] ] } },
{ "type": "Feature", "properties": { "Name": "Philippine:Sunda", "Description": "<html xmlns:fo=\"http://www.w3.org/1999/XSL/Format\" xmlns:msxsl=\"urn:schemas-microsoft-com:xslt\">\n<head>\n<META http-equiv=\"Content-Type\" content=\"text/html\">\n<meta http-equiv=\"content-type\" content=\"text/html; charset=UTF-8\">\n</head>\n<body style=\"margin:0px 0px 0px 0px;overflow:auto;background:#FFFFFF;\">\n<table style=\"font-family:Arial,Verdana,Times;font-size:12px;text-align:left;width:100%;border-collapse:collapse;padding:3px 3px 3px 3px\">\n<tr style=\"text-align:center;font-weight:bold;background:#9CBCE2\">\n<td>Philippine:Sunda</td>\n</tr>\n<tr>\n<td>\n<table style=\"font-family:Arial,Verdana,Times;font-size:12px;text-align:left;width:100%;border-spacing:0px; padding:3px 3px 3px 3px\">\n<tr>\n<td>NAME</td>\n<td>Philippine:Sunda</td>\n</tr>\n<tr bgcolor=\"#D4E4F3\">\n<td>LABEL</td>\n<td>Other</td>\n</tr>\n</table>\n</td>\n</tr>\n</table>\n</body>\n</html>", "LABEL": "Other" }, "geometry": { "type": "MultiLineString", "coordinates": [ [ [ 120.452003478577694, 21.631999969423081, 0.0 ], [ 120.425003051849401, 22.04299926720245, 0.0 ], [ 120.393997192216702, 22.580999374621509, 0.0 ], [ 120.360000610140105, 23.19799995413462, 0.0 ], [ 120.545997619594601, 23.97900009168092, 0.0 ], [ 120.981002807633601, 24.653999328606179, 0.0 ], [ 121.334999084740105, 24.962999343744741, 0.0 ] ] ] } },
{ "type": "Feature", "properties": { "Name": "Indian:Arabian", "Description": "<html xmlns:fo=\"http://www.w3.org/1999/XSL/Format\" xmlns:msxsl=\"urn:schemas-microsoft-com:xslt\">\n<head>\n<META http-equiv=\"Content-Type\" content=\"text/html\">\n<meta http-equiv=\"content-type\" content=\"text/html; charset=UTF-8\">\n</head>\n<body style=\"margin:0px 0px 0px 0px;overflow:auto;background:#FFFFFF;\">\n<table style=\"font-family:Arial,Verdana,Times;font-size:12px;text-align:left;width:100%;border-collapse:collapse;padding:3px 3px 3px 3px\">\n<tr style=\"text-align:center;font-weight:bold;background:#9CBCE2\">\n<td>Indian:Arabian</td>\n</tr>\n<tr>\n<td>\n<table style=\"font-family:Arial,Verdana,Times;font-size:12px;text-align:left;width:100%;border-spacing:0px; padding:3px 3px 3px 3px\">\n<tr>\n<td>NAME</td>\n<td>Indian:Arabian</td>\n</tr>\n<tr bgcolor=\"#D4E4F3\">\n<td>LABEL</td>\n<td>Other</td>\n</tr>\n</table>\n</td>\n</tr>\n</table>\n</body>\n</html>", "LABEL": "Other" }, "geometry": { "type": "MultiLineString", "coordinates": [ [ [ 62.131999969423077, 22.08300018281221, 0.0 ], [ 62.096000671793597, 21.42499923692532, 0.0 ] ] ] } },
{ "type": "Feature", "properties": { "Name": "North American:Caribbean", "Description": "<html xmlns:fo=\"http://www.w3.org/1999/XSL/Format\" xmlns:msxsl=\"urn:schemas-microsoft-com:xslt\">\n<head>\n<META http-equiv=\"Content-Type\" content=\"text/html\">\n<meta http-equiv=\"content-type\" content=\"text/html; charset=UTF-8\">\n</head>\n<body style=\"margin:0px 0px 0px 0px;overflow:auto;background:#FFFFFF;\">\n<table style=\"font-family:Arial,Verdana,Times;font-size:12px;text-align:left;width:100%;border-collapse:collapse;padding:3px 3px 3px 3px\">\n<tr style=\"text-align:center;font-weight:bold;background:#9CBCE2\">\n<td>North American:Caribbean</td>\n</tr>\n<tr>\n<td>\n<table style=\"font-family:Arial,Verdana,Times;font-size:12px;text-align:left;width:100%;border-spacing:0px; padding:3px 3px 3px 3px\">\n<tr>\n<td>NAME</td>\n<td>North American:Caribbean</td>\n</tr>\n<tr bgcolor=\"#D4E4F3\">\n<td>LABEL</td>\n<td>Other</td>\n</tr>\n</table>\n</td>\n</tr>\n</table>\n</body>\n</html>", "LABEL": "Other" }, "geometry": { "type": "MultiLineString", "coordinates": [ [ [ -71.277000427227904, 20.201000213589062, 0.0 ], [ -70.626998901478089, 20.002000808690411, 0.0 ] ] ] } },
{ "type": "Feature", "properties": { "Name": "North American:Caribbean", "Description": "<html xmlns:fo=\"http://www.w3.org/1999/XSL/Format\" xmlns:msxsl=\"urn:schemas-microsoft-com:xslt\">\n<head>\n<META http-equiv=\"Content-Type\" content=\"text/html\">\n<meta http-equiv=\"content-type\" content=\"text/html; charset=UTF-8\">\n</head>\n<body style=\"margin:0px 0px 0px 0px;overflow:auto;background:#FFFFFF;\">\n<table style=\"font-family:Arial,Verdana,Times;font-size:12px;text-align:left;width:100%;border-collapse:collapse;padding:3px 3px 3px 3px\">\n<tr style=\"text-align:center;font-weight:bold;background:#9CBCE2\">\n<td>North American:Caribbean</td>\n</tr>\n<tr>\n<td>\n<table style=\"font-family:Arial,Verdana,Times;font-size:12px;text-align:left;width:100%;border-spacing:0px; padding:3px 3px 3px 3px\">\n<tr>\n<td>NAME</td>\n<td>North American:Caribbean</td>\n</tr>\n<tr bgcolor=\"#D4E4F3\">\n<td>LABEL</td>\n<td>Other</td>\n</tr>\n</table>\n</td>\n</tr>\n</table>\n</body>\n</html>", "LABEL": "Other" }, "geometry": { "type": "MultiLineString", "coordinates": [ [ [ -70.626998901478089, 20.002000808690411, 0.0 ], [ -69.977996826492301, 19.802000045565709, 0.0 ] ] ] } },
{ "type": "Feature", "properties": { "Name": "North American:Caribbean", "Description": "<html xmlns:fo=\"http://www.w3.org/1999/XSL/Format\" xmlns:msxsl=\"urn:schemas-microsoft-com:xslt\">\n<head>\n<META http-equiv=\"Content-Type\" content=\"text/html\">\n<meta http-equiv=\"content-type\" content=\"text/html; charset=UTF-8\">\n</head>\n<body style=\"margin:0px 0px 0px 0px;overflow:auto;background:#FFFFFF;\">\n<table style=\"font-family:Arial,Verdana,Times;font-size:12px;text-align:left;width:100%;border-collapse:collapse;padding:3px 3px 3px 3px\">\n<tr style=\"text-align:center;font-weight:bold;background:#9CBCE2\">\n<td>North American:Caribbean</td>\n</tr>\n<tr>\n<td>\n<table style=\"font-family:Arial,Verdana,Times;font-size:12px;text-align:left;width:100%;border-spacing:0px; padding:3px 3px 3px 3px\">\n<tr>\n<td>NAME</td>\n<td>North American:Caribbean</td>\n</tr>\n<tr bgcolor=\"#D4E4F3\">\n<td>LABEL</td>\n<td>Other</td>\n</tr>\n</table>\n</td>\n</tr>\n</table>\n</body>\n</html>", "LABEL": "Other" }, "geometry": { "type": "MultiLineString", "coordinates": [ [ [ -63.360000610539707, 19.690999984561699, 0.0 ], [ -62.847000121758192, 19.573999404948609, 0.0 ], [ -61.792850927128541, 19.209501563546379, 0.0 ], [ -61.376779436821487, 19.04218750375037, 0.0 ] ] ] } },
{ "type": "Feature", "properties": { "Name": "Indian:Arabian", "Description": "<html xmlns:fo=\"http://www.w3.org/1999/XSL/Format\" xmlns:msxsl=\"urn:schemas-microsoft-com:xslt\">\n<head>\n<META http-equiv=\"Content-Type\" content=\"text/html\">\n<meta http-equiv=\"content-type\" content=\"text/html; charset=UTF-8\">\n</head>\n<body style=\"margin:0px 0px 0px 0px;overflow:auto;background:#FFFFFF;\">\n<table style=\"font-family:Arial,Verdana,Times;font-size:12px;text-align:left;width:100%;border-collapse:collapse;padding:3px 3px 3px 3px\">\n<tr style=\"text-align:center;font-weight:bold;background:#9CBCE2\">\n<td>Indian:Arabian</td>\n</tr>\n<tr>\n<td>\n<table style=\"font-family:Arial,Verdana,Times;font-size:12px;text-align:left;width:100%;border-spacing:0px; padding:3px 3px 3px 3px\">\n<tr>\n<td>NAME</td>\n<td>Indian:Arabian</td>\n</tr>\n<tr bgcolor=\"#D4E4F3\">\n<td>LABEL</td>\n<td>Other</td>\n</tr>\n</table>\n</td>\n</tr>\n</table>\n</body>\n</html>", "LABEL": "Other" }, "geometry": { "type": "MultiLineString", "coordinates": [ [ [ 59.909000397050761, 15.571999550039269, 0.0 ], [ 59.964000702170722, 16.142000198750232, 0.0 ], [ 60.020000458054767, 16.71299934404453, 0.0 ], [ 60.062000274293268, 17.45800018306204, 0.0 ], [ 60.215000152435152, 18.239999771372428, 0.0 ], [ 60.456001281933652, 18.798000335247309, 0.0 ], [ 60.712001800942403, 19.305999756183841, 0.0 ], [ 60.970001220579952, 19.812999725457018, 0.0 ] ] ] } },
{ "type": "Feature", "properties": { "Name": "African:Indian", "Description": "<html xmlns:fo=\"http://www.w3.org/1999/XSL/Format\" xmlns:msxsl=\"urn:schemas-microsoft-com:xslt\">\n<head>\n<META http-equiv=\"Content-Type\" content=\"text/html\">\n<meta http-equiv=\"content-type\" content=\"text/html; charset=UTF-8\">\n</head>\n<body style=\"margin:0px 0px 0px 0px;overflow:auto;background:#FFFFFF;\">\n<table style=\"font-family:Arial,Verdana,Times;font-size:12px;text-align:left;width:100%;border-collapse:collapse;padding:3px 3px 3px 3px\">\n<tr style=\"text-align:center;font-weight:bold;background:#9CBCE2\">\n<td>African:Indian</td>\n</tr>\n<tr>\n<td>\n<table style=\"font-family:Arial,Verdana,Times;font-size:12px;text-align:left;width:100%;border-spacing:0px; padding:3px 3px 3px 3px\">\n<tr>\n<td>NAME</td>\n<td>African:Indian</td>\n</tr>\n<tr bgcolor=\"#D4E4F3\">\n<td>LABEL</td>\n<td>Other</td>\n</tr>\n</table>\n</td>\n</tr>\n</table>\n</body>\n</html>", "LABEL": "Other" }, "geometry": { "type": "MultiLineString", "coordinates": [ [ [ 56.819000243866242, 14.30200004576557, 0.0 ], [ 56.76200103721817, 14.2080001832619, 0.0 ] ] ] } },
{ "type": "Feature", "properties": { "Name": "African:Indian", "Description": "<html xmlns:fo=\"http://www.w3.org/1999/XSL/Format\" xmlns:msxsl=\"urn:schemas-microsoft-com:xslt\">\n<head>\n<META http-equiv=\"Content-Type\" content=\"text/html\">\n<meta http-equiv=\"content-type\" content=\"text/html; charset=UTF-8\">\n</head>\n<body style=\"margin:0px 0px 0px 0px;overflow:auto;background:#FFFFFF;\">\n<table style=\"font-family:Arial,Verdana,Times;font-size:12px;text-align:left;width:100%;border-collapse:collapse;padding:3px 3px 3px 3px\">\n<tr style=\"text-align:center;font-weight:bold;background:#9CBCE2\">\n<td>African:Indian</td>\n</tr>\n<tr>\n<td>\n<table style=\"font-family:Arial,Verdana,Times;font-size:12px;text-align:left;width:100%;border-spacing:0px; padding:3px 3px 3px 3px\">\n<tr>\n<td>NAME</td>\n<td>African:Indian</td>\n</tr>\n<tr bgcolor=\"#D4E4F3\">\n<td>LABEL</td>\n<td>Other</td>\n</tr>\n</table>\n</td>\n</tr>\n</table>\n</body>\n</html>", "LABEL": "Other" }, "geometry": { "type": "MultiLineString", "coordinates": [ [ [ 57.03699874879328, 14.0679998398208, 0.0 ], [ 56.969001769715931, 13.93700027474296, 0.0 ] ] ] } },
{ "type": "Feature", "properties": { "Name": "African:Indian", "Description": "<html xmlns:fo=\"http://www.w3.org/1999/XSL/Format\" xmlns:msxsl=\"urn:schemas-microsoft-com:xslt\">\n<head>\n<META http-equiv=\"Content-Type\" content=\"text/html\">\n<meta http-equiv=\"content-type\" content=\"text/html; charset=UTF-8\">\n</head>\n<body style=\"margin:0px 0px 0px 0px;overflow:auto;background:#FFFFFF;\">\n<table style=\"font-family:Arial,Verdana,Times;font-size:12px;text-align:left;width:100%;border-collapse:collapse;padding:3px 3px 3px 3px\">\n<tr style=\"text-align:center;font-weight:bold;background:#9CBCE2\">\n<td>African:Indian</td>\n</tr>\n<tr>\n<td>\n<table style=\"font-family:Arial,Verdana,Times;font-size:12px;text-align:left;width:100%;border-spacing:0px; padding:3px 3px 3px 3px\">\n<tr>\n<td>NAME</td>\n<td>African:Indian</td>\n</tr>\n<tr bgcolor=\"#D4E4F3\">\n<td>LABEL</td>\n<td>Other</td>\n</tr>\n</table>\n</td>\n</tr>\n</table>\n</body>\n</html>", "LABEL": "Other" }, "geometry": { "type": "MultiLineString", "coordinates": [ [ [ 57.810001373664527, 13.45100021358906, 0.0 ], [ 57.73300170876189, 13.30900001533848, 0.0 ], [ 57.638999938796189, 13.13799953465087, 0.0 ] ] ] } },
{ "type": "Feature", "properties": { "Name": "African:Indian", "Description": "<html xmlns:fo=\"http://www.w3.org/1999/XSL/Format\" xmlns:msxsl=\"urn:schemas-microsoft-com:xslt\">\n<head>\n<META http-equiv=\"Content-Type\" content=\"text/html\">\n<meta http-equiv=\"content-type\" content=\"text/html; charset=UTF-8\">\n</head>\n<body style=\"margin:0px 0px 0px 0px;overflow:auto;background:#FFFFFF;\">\n<table style=\"font-family:Arial,Verdana,Times;font-size:12px;text-align:left;width:100%;border-collapse:collapse;padding:3px 3px 3px 3px\">\n<tr style=\"text-align:center;font-weight:bold;background:#9CBCE2\">\n<td>African:Indian</td>\n</tr>\n<tr>\n<td>\n<table style=\"font-family:Arial,Verdana,Times;font-size:12px;text-align:left;width:100%;border-spacing:0px; padding:3px 3px 3px 3px\">\n<tr>\n<td>NAME</td>\n<td>African:Indian</td>\n</tr>\n<tr bgcolor=\"#D4E4F3\">\n<td>LABEL</td>\n<td>Other</td>\n</tr>\n</table>\n</td>\n</tr>\n</table>\n</body>\n</html>", "LABEL": "Other" }, "geometry": { "type": "MultiLineString", "coordinates": [ [ [ 58.250999450464349, 8.647000313014075, 0.0 ], [ 58.430000305469783, 8.86299991641306, 0.0 ] ] ] } },
{ "type": "Feature", "properties": { "Name": "African:Indian", "Description": "<html xmlns:fo=\"http://www.w3.org/1999/XSL/Format\" xmlns:msxsl=\"urn:schemas-microsoft-com:xslt\">\n<head>\n<META http-equiv=\"Content-Type\" content=\"text/html\">\n<meta http-equiv=\"content-type\" content=\"text/html; charset=UTF-8\">\n</head>\n<body style=\"margin:0px 0px 0px 0px;overflow:auto;background:#FFFFFF;\">\n<table style=\"font-family:Arial,Verdana,Times;font-size:12px;text-align:left;width:100%;border-collapse:collapse;padding:3px 3px 3px 3px\">\n<tr style=\"text-align:center;font-weight:bold;background:#9CBCE2\">\n<td>African:Indian</td>\n</tr>\n<tr>\n<td>\n<table style=\"font-family:Arial,Verdana,Times;font-size:12px;text-align:left;width:100%;border-spacing:0px; padding:3px 3px 3px 3px\">\n<tr>\n<td>NAME</td>\n<td>African:Indian</td>\n</tr>\n<tr bgcolor=\"#D4E4F3\">\n<td>LABEL</td>\n<td>Other</td>\n</tr>\n</table>\n</td>\n</tr>\n</table>\n</body>\n</html>", "LABEL": "Other" }, "geometry": { "type": "MultiLineString", "coordinates": [ [ [ 59.220001220480022, 7.672999859256152, 0.0 ], [ 59.308998107676587, 7.768000125805202, 0.0 ] ] ] } },
{ "type": "Feature", "properties": { "Name": "Pacific:Philippine", "Description": "<html xmlns:fo=\"http://www.w3.org/1999/XSL/Format\" xmlns:msxsl=\"urn:schemas-microsoft-com:xslt\">\n<head>\n<META http-equiv=\"Content-Type\" content=\"text/html\">\n<meta http-equiv=\"content-type\" content=\"text/html; charset=UTF-8\">\n</head>\n<body style=\"margin:0px 0px 0px 0px;overflow:auto;background:#FFFFFF;\">\n<table style=\"font-family:Arial,Verdana,Times;font-size:12px;text-align:left;width:100%;border-collapse:collapse;padding:3px 3px 3px 3px\">\n<tr style=\"text-align:center;font-weight:bold;background:#9CBCE2\">\n<td>Pacific:Philippine</td>\n</tr>\n<tr>\n<td>\n<table style=\"font-family:Arial,Verdana,Times;font-size:12px;text-align:left;width:100%;border-spacing:0px; padding:3px 3px 3px 3px\">\n<tr>\n<td>NAME</td>\n<td>Pacific:Philippine</td>\n</tr>\n<tr bgcolor=\"#D4E4F3\">\n<td>LABEL</td>\n<td>Other</td>\n</tr>\n</table>\n</td>\n</tr>\n</table>\n</body>\n</html>", "LABEL": "Other" }, "geometry": { "type": "MultiLineString", "coordinates": [ [ [ 133.988998412946387, 6.333000182812214, 0.0 ], [ 134.268997192366612, 6.610000133299536, 0.0 ], [ 134.556944354498512, 6.909637777861235, 0.0 ], [ 135.235275050803011, 6.914097574343657, 0.0 ], [ 135.380714344691313, 6.905148309147194, 0.0 ], [ 135.517645119426788, 6.910455655504165, 0.0 ], [ 135.91370119125699, 6.970087454772283, 0.0 ], [ 136.23404014024041, 7.249035419549045, 0.0 ], [ 136.482622812692711, 7.28606703906263, 0.0 ], [ 136.793675343342386, 7.342422555056942, 0.0 ], [ 137.001607028841391, 7.403730763464012, 0.0 ], [ 137.185129498827308, 7.546956524524035, 0.0 ], [ 137.486769896713412, 7.788620765535939, 0.0 ], [ 137.668223836061202, 7.990897287379937, 0.0 ], [ 137.837779155683506, 8.267540177337366, 0.0 ], [ 138.004359821049007, 8.535259103624753, 0.0 ], [ 138.355369079119811, 9.159936597396097, 0.0 ], [ 138.426760792976296, 9.350314500413901, 0.0 ] ] ] } },
{ "type": "Feature", "properties": { "Name": "Pacific:Nazca", "Description": "<html xmlns:fo=\"http://www.w3.org/1999/XSL/Format\" xmlns:msxsl=\"urn:schemas-microsoft-com:xslt\">\n<head>\n<META http-equiv=\"Content-Type\" content=\"text/html\">\n<meta http-equiv=\"content-type\" content=\"text/html; charset=UTF-8\">\n</head>\n<body style=\"margin:0px 0px 0px 0px;overflow:auto;background:#FFFFFF;\">\n<table style=\"font-family:Arial,Verdana,Times;font-size:12px;text-align:left;width:100%;border-collapse:collapse;padding:3px 3px 3px 3px\">\n<tr style=\"text-align:center;font-weight:bold;background:#9CBCE2\">\n<td>Pacific:Nazca</td>\n</tr>\n<tr>\n<td>\n<table style=\"font-family:Arial,Verdana,Times;font-size:12px;text-align:left;width:100%;border-spacing:0px; padding:3px 3px 3px 3px\">\n<tr>\n<td>NAME</td>\n<td>Pacific:Nazca</td>\n</tr>\n<tr bgcolor=\"#D4E4F3\">\n<td>LABEL</td>\n<td>Other</td>\n</tr>\n</table>\n</td>\n</tr>\n</table>\n</body>\n</html>", "LABEL": "Other" }, "geometry": { "type": "MultiLineString", "coordinates": [ [ [ -112.356002807583494, -32.327999114967163, 0.0 ], [ -112.151000976613801, -32.34299850447735, 0.0 ] ] ] } },
{ "type": "Feature", "properties": { "Name": "Pacific:Nazca", "Description": "<html xmlns:fo=\"http://www.w3.org/1999/XSL/Format\" xmlns:msxsl=\"urn:schemas-microsoft-com:xslt\">\n<head>\n<META http-equiv=\"Content-Type\" content=\"text/html\">\n<meta http-equiv=\"content-type\" content=\"text/html; charset=UTF-8\">\n</head>\n<body style=\"margin:0px 0px 0px 0px;overflow:auto;background:#FFFFFF;\">\n<table style=\"font-family:Arial,Verdana,Times;font-size:12px;text-align:left;width:100%;border-collapse:collapse;padding:3px 3px 3px 3px\">\n<tr style=\"text-align:center;font-weight:bold;background:#9CBCE2\">\n<td>Pacific:Nazca</td>\n</tr>\n<tr>\n<td>\n<table style=\"font-family:Arial,Verdana,Times;font-size:12px;text-align:left;width:100%;border-spacing:0px; padding:3px 3px 3px 3px\">\n<tr>\n<td>NAME</td>\n<td>Pacific:Nazca</td>\n</tr>\n<tr bgcolor=\"#D4E4F3\">\n<td>LABEL</td>\n<td>Other</td>\n</tr>\n</table>\n</td>\n</tr>\n</table>\n</body>\n</html>", "LABEL": "Other" }, "geometry": { "type": "MultiLineString", "coordinates": [ [ [ -112.603996276606793, -33.662998199307417, 0.0 ], [ -112.503997802956206, -33.650001526249412, 0.0 ] ] ] } },
{ "type": "Feature", "properties": { "Name": "Pacific:Australian", "Description": "<html xmlns:fo=\"http://www.w3.org/1999/XSL/Format\" xmlns:msxsl=\"urn:schemas-microsoft-com:xslt\">\n<head>\n<META http-equiv=\"Content-Type\" content=\"text/html\">\n<meta http-equiv=\"content-type\" content=\"text/html; charset=UTF-8\">\n</head>\n<body style=\"margin:0px 0px 0px 0px;overflow:auto;background:#FFFFFF;\">\n<table style=\"font-family:Arial,Verdana,Times;font-size:12px;text-align:left;width:100%;border-collapse:collapse;padding:3px 3px 3px 3px\">\n<tr style=\"text-align:center;font-weight:bold;background:#9CBCE2\">\n<td>Pacific:Australian</td>\n</tr>\n<tr>\n<td>\n<table style=\"font-family:Arial,Verdana,Times;font-size:12px;text-align:left;width:100%;border-spacing:0px; padding:3px 3px 3px 3px\">\n<tr>\n<td>NAME</td>\n<td>Pacific:Australian</td>\n</tr>\n<tr bgcolor=\"#D4E4F3\">\n<td>LABEL</td>\n<td>Other</td>\n</tr>\n</table>\n</td>\n</tr>\n</table>\n</body>\n</html>", "LABEL": "Other" }, "geometry": { "type": "MultiLineString", "coordinates": [ [ [ 162.962997436582611, -50.36899948134095, 0.0 ], [ 163.046997069958906, -50.272998809847138, 0.0 ] ] ] } },
{ "type": "Feature", "properties": { "Name": "South America:Scotia", "Description": "<html xmlns:fo=\"http://www.w3.org/1999/XSL/Format\" xmlns:msxsl=\"urn:schemas-microsoft-com:xslt\">\n<head>\n<META http-equiv=\"Content-Type\" content=\"text/html\">\n<meta http-equiv=\"content-type\" content=\"text/html; charset=UTF-8\">\n</head>\n<body style=\"margin:0px 0px 0px 0px;overflow:auto;background:#FFFFFF;\">\n<table style=\"font-family:Arial,Verdana,Times;font-size:12px;text-align:left;width:100%;border-collapse:collapse;padding:3px 3px 3px 3px\">\n<tr style=\"text-align:center;font-weight:bold;background:#9CBCE2\">\n<td>South America:Scotia</td>\n</tr>\n<tr>\n<td>\n<table style=\"font-family:Arial,Verdana,Times;font-size:12px;text-align:left;width:100%;border-spacing:0px; padding:3px 3px 3px 3px\">\n<tr>\n<td>NAME</td>\n<td>South America:Scotia</td>\n</tr>\n<tr bgcolor=\"#D4E4F3\">\n<td>LABEL</td>\n<td>Other</td>\n</tr>\n</table>\n</td>\n</tr>\n</table>\n</body>\n</html>", "LABEL": "Other" }, "geometry": { "type": "MultiLineString", "coordinates": [ [ [ -49.162998199807021, -52.664001464795717, 0.0 ], [ -47.662998199207493, -52.691001892423337, 0.0 ], [ -46.414001464695787, -52.830001830919741, 0.0 ], [ -45.191001892123609, -52.930999756233753, 0.0 ], [ -44.208999634125753, -53.270000457854792, 0.0 ], [ -43.213001251406581, -53.599998474549921, 0.0 ], [ -42.409999847514882, -53.88000106799484, 0.0 ], [ -41.597000121958047, -54.153999328805916, 0.0 ], [ -40.659999847415008, -54.396999358933222, 0.0 ], [ -39.710998534754538, -54.632999420586771, 0.0 ], [ -38.715000152934692, -54.853000641066672, 0.0 ] ] ] } },
{ "type": "Feature", "properties": { "Name": "South America:Scotia", "Description": "<html xmlns:fo=\"http://www.w3.org/1999/XSL/Format\" xmlns:msxsl=\"urn:schemas-microsoft-com:xslt\">\n<head>\n<META http-equiv=\"Content-Type\" content=\"text/html\">\n<meta http-equiv=\"content-type\" content=\"text/html; charset=UTF-8\">\n</head>\n<body style=\"margin:0px 0px 0px 0px;overflow:auto;background:#FFFFFF;\">\n<table style=\"font-family:Arial,Verdana,Times;font-size:12px;text-align:left;width:100%;border-collapse:collapse;padding:3px 3px 3px 3px\">\n<tr style=\"text-align:center;font-weight:bold;background:#9CBCE2\">\n<td>South America:Scotia</td>\n</tr>\n<tr>\n<td>\n<table style=\"font-family:Arial,Verdana,Times;font-size:12px;text-align:left;width:100%;border-spacing:0px; padding:3px 3px 3px 3px\">\n<tr>\n<td>NAME</td>\n<td>South America:Scotia</td>\n</tr>\n<tr bgcolor=\"#D4E4F3\">\n<td>LABEL</td>\n<td>Other</td>\n</tr>\n</table>\n</td>\n</tr>\n</table>\n</body>\n</html>", "LABEL": "Other" }, "geometry": { "type": "MultiLineString", "coordinates": [ [ [ -33.734001159625791, -54.459999084190322, 0.0 ], [ -32.367000579812839, -54.584999084839872, 0.0 ], [ -30.906000137496282, -54.821998596358071, 0.0 ], [ -29.489000320408419, -55.033000945936863, 0.0 ] ] ] } },
{ "type": "Feature", "properties": { "Name": "South America:Scotia", "Description": "<html xmlns:fo=\"http://www.w3.org/1999/XSL/Format\" xmlns:msxsl=\"urn:schemas-microsoft-com:xslt\">\n<head>\n<META http-equiv=\"Content-Type\" content=\"text/html\">\n<meta http-equiv=\"content-type\" content=\"text/html; charset=UTF-8\">\n</head>\n<body style=\"margin:0px 0px 0px 0px;overflow:auto;background:#FFFFFF;\">\n<table style=\"font-family:Arial,Verdana,Times;font-size:12px;text-align:left;width:100%;border-collapse:collapse;padding:3px 3px 3px 3px\">\n<tr style=\"text-align:center;font-weight:bold;background:#9CBCE2\">\n<td>South America:Scotia</td>\n</tr>\n<tr>\n<td>\n<table style=\"font-family:Arial,Verdana,Times;font-size:12px;text-align:left;width:100%;border-spacing:0px; padding:3px 3px 3px 3px\">\n<tr>\n<td>NAME</td>\n<td>South America:Scotia</td>\n</tr>\n<tr bgcolor=\"#D4E4F3\">\n<td>LABEL</td>\n<td>Other</td>\n</tr>\n</table>\n</td>\n</tr>\n</table>\n</body>\n</html>", "LABEL": "Other" }, "geometry": { "type": "MultiLineString", "coordinates": [ [ [ -38.715000152934692, -54.853000641066672, 0.0 ], [ -37.810001372964962, -55.085998535503961, 0.0 ] ] ] } },
{ "type": "Feature", "properties": { "Name": "South America:Scotia", "Description": "<html xmlns:fo=\"http://www.w3.org/1999/XSL/Format\" xmlns:msxsl=\"urn:schemas-microsoft-com:xslt\">\n<head>\n<META http-equiv=\"Content-Type\" content=\"text/html\">\n<meta http-equiv=\"content-type\" content=\"text/html; charset=UTF-8\">\n</head>\n<body style=\"margin:0px 0px 0px 0px;overflow:auto;background:#FFFFFF;\">\n<table style=\"font-family:Arial,Verdana,Times;font-size:12px;text-align:left;width:100%;border-collapse:collapse;padding:3px 3px 3px 3px\">\n<tr style=\"text-align:center;font-weight:bold;background:#9CBCE2\">\n<td>South America:Scotia</td>\n</tr>\n<tr>\n<td>\n<table style=\"font-family:Arial,Verdana,Times;font-size:12px;text-align:left;width:100%;border-spacing:0px; padding:3px 3px 3px 3px\">\n<tr>\n<td>NAME</td>\n<td>South America:Scotia</td>\n</tr>\n<tr bgcolor=\"#D4E4F3\">\n<td>LABEL</td>\n<td>Other</td>\n</tr>\n</table>\n</td>\n</tr>\n</table>\n</body>\n</html>", "LABEL": "Other" }, "geometry": { "type": "MultiLineString", "coordinates": [ [ [ -37.810001372964962, -55.085998535503961, 0.0 ], [ -36.846000671693623, -55.215000152335108, 0.0 ], [ -36.108001708611937, -55.641998291288083, 0.0 ] ] ] } },
{ "type": "Feature", "properties": { "Name": "South America:Scotia", "Description": "<html xmlns:fo=\"http://www.w3.org/1999/XSL/Format\" xmlns:msxsl=\"urn:schemas-microsoft-com:xslt\">\n<head>\n<META http-equiv=\"Content-Type\" content=\"text/html\">\n<meta http-equiv=\"content-type\" content=\"text/html; charset=UTF-8\">\n</head>\n<body style=\"margin:0px 0px 0px 0px;overflow:auto;background:#FFFFFF;\">\n<table style=\"font-family:Arial,Verdana,Times;font-size:12px;text-align:left;width:100%;border-collapse:collapse;padding:3px 3px 3px 3px\">\n<tr style=\"text-align:center;font-weight:bold;background:#9CBCE2\">\n<td>South America:Scotia</td>\n</tr>\n<tr>\n<td>\n<table style=\"font-family:Arial,Verdana,Times;font-size:12px;text-align:left;width:100%;border-spacing:0px; padding:3px 3px 3px 3px\">\n<tr>\n<td>NAME</td>\n<td>South America:Scotia</td>\n</tr>\n<tr bgcolor=\"#D4E4F3\">\n<td>LABEL</td>\n<td>Other</td>\n</tr>\n</table>\n</td>\n</tr>\n</table>\n</body>\n</html>", "LABEL": "Other" }, "geometry": { "type": "MultiLineString", "coordinates": [ [ [ -34.590999602949303, -55.729000091880721, 0.0 ], [ -33.691001891723893, -55.604999541995198, 0.0 ] ] ] } },
{ "type": "Feature", "properties": { "Name": "South America:Scotia", "Description": "<html xmlns:fo=\"http://www.w3.org/1999/XSL/Format\" xmlns:msxsl=\"urn:schemas-microsoft-com:xslt\">\n<head>\n<META http-equiv=\"Content-Type\" content=\"text/html\">\n<meta http-equiv=\"content-type\" content=\"text/html; charset=UTF-8\">\n</head>\n<body style=\"margin:0px 0px 0px 0px;overflow:auto;background:#FFFFFF;\">\n<table style=\"font-family:Arial,Verdana,Times;font-size:12px;text-align:left;width:100%;border-collapse:collapse;padding:3px 3px 3px 3px\">\n<tr style=\"text-align:center;font-weight:bold;background:#9CBCE2\">\n<td>South America:Scotia</td>\n</tr>\n<tr>\n<td>\n<table style=\"font-family:Arial,Verdana,Times;font-size:12px;text-align:left;width:100%;border-spacing:0px; padding:3px 3px 3px 3px\">\n<tr>\n<td>NAME</td>\n<td>South America:Scotia</td>\n</tr>\n<tr bgcolor=\"#D4E4F3\">\n<td>LABEL</td>\n<td>Other</td>\n</tr>\n</table>\n</td>\n</tr>\n</table>\n</body>\n</html>", "LABEL": "Other" }, "geometry": { "type": "MultiLineString", "coordinates": [ [ [ -36.108001708611937, -55.641998291288083, 0.0 ], [ -34.590999602949303, -55.729000091880721, 0.0 ] ] ] } },
{ "type": "Feature", "properties": { "Name": "Antarctic:Scotia", "Description": "<html xmlns:fo=\"http://www.w3.org/1999/XSL/Format\" xmlns:msxsl=\"urn:schemas-microsoft-com:xslt\">\n<head>\n<META http-equiv=\"Content-Type\" content=\"text/html\">\n<meta http-equiv=\"content-type\" content=\"text/html; charset=UTF-8\">\n</head>\n<body style=\"margin:0px 0px 0px 0px;overflow:auto;background:#FFFFFF;\">\n<table style=\"font-family:Arial,Verdana,Times;font-size:12px;text-align:left;width:100%;border-collapse:collapse;padding:3px 3px 3px 3px\">\n<tr style=\"text-align:center;font-weight:bold;background:#9CBCE2\">\n<td>Antarctic:Scotia</td>\n</tr>\n<tr>\n<td>\n<table style=\"font-family:Arial,Verdana,Times;font-size:12px;text-align:left;width:100%;border-spacing:0px; padding:3px 3px 3px 3px\">\n<tr>\n<td>NAME</td>\n<td>Antarctic:Scotia</td>\n</tr>\n<tr bgcolor=\"#D4E4F3\">\n<td>LABEL</td>\n<td>Other</td>\n</tr>\n</table>\n</td>\n</tr>\n</table>\n</body>\n</html>", "LABEL": "Other" }, "geometry": { "type": "MultiLineString", "coordinates": [ [ [ -41.214000701671011, -60.974998474200163, 0.0 ], [ -42.067001342837671, -60.500999450264374, 0.0 ] ] ] } },
{ "type": "Feature", "properties": { "Name": "Antarctic:Scotia", "Description": "<html xmlns:fo=\"http://www.w3.org/1999/XSL/Format\" xmlns:msxsl=\"urn:schemas-microsoft-com:xslt\">\n<head>\n<META http-equiv=\"Content-Type\" content=\"text/html\">\n<meta http-equiv=\"content-type\" content=\"text/html; charset=UTF-8\">\n</head>\n<body style=\"margin:0px 0px 0px 0px;overflow:auto;background:#FFFFFF;\">\n<table style=\"font-family:Arial,Verdana,Times;font-size:12px;text-align:left;width:100%;border-collapse:collapse;padding:3px 3px 3px 3px\">\n<tr style=\"text-align:center;font-weight:bold;background:#9CBCE2\">\n<td>Antarctic:Scotia</td>\n</tr>\n<tr>\n<td>\n<table style=\"font-family:Arial,Verdana,Times;font-size:12px;text-align:left;width:100%;border-spacing:0px; padding:3px 3px 3px 3px\">\n<tr>\n<td>NAME</td>\n<td>Antarctic:Scotia</td>\n</tr>\n<tr bgcolor=\"#D4E4F3\">\n<td>LABEL</td>\n<td>Other</td>\n</tr>\n</table>\n</td>\n</tr>\n</table>\n</body>\n</html>", "LABEL": "Other" }, "geometry": { "type": "MultiLineString", "coordinates": [ [ [ -39.09299850447735, -61.018001556126883, 0.0 ], [ -39.826999664502857, -60.633998871051013, 0.0 ] ] ] } },
{ "type": "Feature", "properties": { "Name": "Pacific:Australian", "Description": "<html xmlns:fo=\"http://www.w3.org/1999/XSL/Format\" xmlns:msxsl=\"urn:schemas-microsoft-com:xslt\">\n<head>\n<META http-equiv=\"Content-Type\" content=\"text/html\">\n<meta http-equiv=\"content-type\" content=\"text/html; charset=UTF-8\">\n</head>\n<body style=\"margin:0px 0px 0px 0px;overflow:auto;background:#FFFFFF;\">\n<table style=\"font-family:Arial,Verdana,Times;font-size:12px;text-align:left;width:100%;border-collapse:collapse;padding:3px 3px 3px 3px\">\n<tr style=\"text-align:center;font-weight:bold;background:#9CBCE2\">\n<td>Pacific:Australian</td>\n</tr>\n<tr>\n<td>\n<table style=\"font-family:Arial,Verdana,Times;font-size:12px;text-align:left;width:100%;border-spacing:0px; padding:3px 3px 3px 3px\">\n<tr>\n<td>NAME</td>\n<td>Pacific:Australian</td>\n</tr>\n<tr bgcolor=\"#D4E4F3\">\n<td>LABEL</td>\n<td>Other</td>\n</tr>\n</table>\n</td>\n</tr>\n</table>\n</body>\n</html>", "LABEL": "Other" }, "geometry": { "type": "MultiLineString", "coordinates": [ [ [ 161.22799682599279, -61.4570007322979, 0.0 ], [ 161.128997803106188, -61.383998870451478, 0.0 ], [ 160.740005493159089, -61.053001403891642, 0.0 ], [ 160.326995849978488, -60.50400161748064, 0.0 ], [ 159.802993774742987, -60.006000519108632, 0.0 ], [ 159.690994262974897, -59.938999175871231, 0.0 ], [ 159.412994385082897, -59.731998443373413, 0.0 ], [ 159.18600463910289, -59.511001587053563, 0.0 ], [ 158.580727173020705, -59.140160668080341, 0.0 ], [ 158.180191154498289, -58.954139581076788, 0.0 ], [ 157.855763054721308, -58.626093076134509, 0.0 ], [ 157.588563774698514, -58.268469146134123, 0.0 ], [ 157.322732305951291, -57.913058399125759, 0.0 ], [ 157.260703683927886, -57.544890403769102, 0.0 ] ] ] } },
{ "type": "Feature", "properties": { "Name": "Australia:Pacific", "Description": "<html xmlns:fo=\"http://www.w3.org/1999/XSL/Format\" xmlns:msxsl=\"urn:schemas-microsoft-com:xslt\">\n<head>\n<META http-equiv=\"Content-Type\" content=\"text/html\">\n<meta http-equiv=\"content-type\" content=\"text/html; charset=UTF-8\">\n</head>\n<body style=\"margin:0px 0px 0px 0px;overflow:auto;background:#FFFFFF;\">\n<table style=\"font-family:Arial,Verdana,Times;font-size:12px;text-align:left;width:100%;border-collapse:collapse;padding:3px 3px 3px 3px\">\n<tr style=\"text-align:center;font-weight:bold;background:#9CBCE2\">\n<td>Australia:Pacific</td>\n</tr>\n<tr>\n<td>\n<table style=\"font-family:Arial,Verdana,Times;font-size:12px;text-align:left;width:100%;border-spacing:0px; padding:3px 3px 3px 3px\">\n<tr>\n<td>NAME</td>\n<td>Australia:Pacific</td>\n</tr>\n<tr bgcolor=\"#D4E4F3\">\n<td>LABEL</td>\n<td>Other</td>\n</tr>\n</table>\n</td>\n</tr>\n</table>\n</body>\n</html>", "LABEL": "Other" }, "geometry": { "type": "MultiLineString", "coordinates": [ [ [ 151.728340859043414, -3.778055637757404, 0.0 ], [ 150.567890545812105, -3.100674872847037, 0.0 ], [ 149.902748250831195, -3.703414322612844, 0.0 ], [ 147.895465070956305, -3.021674822534976, 0.0 ], [ 146.8207589085969, -3.475692117497204, 0.0 ], [ 144.230756732737092, -3.589551678167368, 0.0 ] ] ] } },
{ "type": "Feature", "properties": { "Name": "Eurasian:North American", "Description": "<html xmlns:fo=\"http://www.w3.org/1999/XSL/Format\" xmlns:msxsl=\"urn:schemas-microsoft-com:xslt\">\n<head>\n<META http-equiv=\"Content-Type\" content=\"text/html\">\n<meta http-equiv=\"content-type\" content=\"text/html; charset=UTF-8\">\n</head>\n<body style=\"margin:0px 0px 0px 0px;overflow:auto;background:#FFFFFF;\">\n<table style=\"font-family:Arial,Verdana,Times;font-size:12px;text-align:left;width:100%;border-collapse:collapse;padding:3px 3px 3px 3px\">\n<tr style=\"text-align:center;font-weight:bold;background:#9CBCE2\">\n<td>Eurasian:North American</td>\n</tr>\n<tr>\n<td>\n<table style=\"font-family:Arial,Verdana,Times;font-size:12px;text-align:left;width:100%;border-spacing:0px; padding:3px 3px 3px 3px\">\n<tr>\n<td>NAME</td>\n<td>Eurasian:North American</td>\n</tr>\n<tr bgcolor=\"#D4E4F3\">\n<td>LABEL</td>\n<td>Other</td>\n</tr>\n</table>\n</td>\n</tr>\n</table>\n</body>\n</html>", "LABEL": "Other" }, "geometry": { "type": "MultiLineString", "coordinates": [ [ [ 138.673995971636799, 35.034000396401211, 0.0 ], [ 138.421005248793193, 35.360000610040167, 0.0 ], [ 138.259002685725505, 35.734001159426043, 0.0 ], [ 138.121002197093702, 36.027000426828302, 0.0 ], [ 137.893997192316704, 36.311000824228699, 0.0 ], [ 137.854003906555107, 36.599998474550027, 0.0 ], [ 137.901992797529601, 37.183998107826483, 0.0 ], [ 137.889007568344709, 37.855998993358916, 0.0 ], [ 137.848007201970887, 38.48500061009014, 0.0 ], [ 137.774002075335602, 38.981998443673262, 0.0 ], [ 137.845001220729813, 39.403999328806037, 0.0 ], [ 138.085006713489093, 39.659000397050761, 0.0 ], [ 138.352005004927207, 39.83200073254784, 0.0 ], [ 138.654998779070411, 40.071998596358192, 0.0 ], [ 138.654998779070411, 40.473999023236388, 0.0 ], [ 138.755996704384387, 40.782001495073018, 0.0 ], [ 138.475006103149212, 41.103000640866917, 0.0 ], [ 138.488998412946387, 41.481998443173673, 0.0 ], [ 138.742996215503013, 41.769001006891017, 0.0 ], [ 138.8240051273348, 41.994998931955202, 0.0 ], [ 138.811004638453397, 42.765998840374209, 0.0 ], [ 138.800994872915112, 43.192001342587957, 0.0 ], [ 138.563003540481105, 43.938999175671483, 0.0 ], [ 138.576995849379102, 44.294998169230162, 0.0 ], [ 138.850006103299108, 44.81100082432863, 0.0 ], [ 139.03799438443329, 45.411998748643377, 0.0 ], [ 139.158004761110902, 45.946998596308219, 0.0 ], [ 139.369995117580601, 46.223999023436249, 0.0 ], [ 139.938003540431112, 46.515998840074467, 0.0 ], [ 140.552993774543097, 46.956001281933652, 0.0 ], [ 141.177993774193396, 47.391998290888473, 0.0 ], [ 142.022994995222888, 48.050998687539447, 0.0 ], [ 142.878005981790693, 48.703998565581401, 0.0 ], [ 142.761001587253503, 49.241001128799098, 0.0 ], [ 142.64100646937311, 49.777999877992052, 0.0 ], [ 142.520996093594903, 50.318000793501881, 0.0 ], [ 142.397994995372812, 50.856998443323562, 0.0 ], [ 142.541000365874197, 51.70000076282497, 0.0 ], [ 142.692001342488112, 52.541999816638281, 0.0 ], [ 142.783996581976794, 53.04199981653835, 0.0 ], [ 142.848999023685991, 53.383998870451592, 0.0 ], [ 142.408996581826813, 54.034999846965427, 0.0 ], [ 142.179000854605903, 54.574001312610562, 0.0 ], [ 141.942993164003411, 55.111999511668159, 0.0 ], [ 141.6999969479009, 55.650001525649941, 0.0 ], [ 141.451004028113488, 56.187999725606922, 0.0 ], [ 141.535003662389187, 56.658000946486538, 0.0 ], [ 141.621002197293592, 57.127998352442091, 0.0 ], [ 141.708999633726194, 57.597999572422403, 0.0 ], [ 141.800003051399813, 58.069000244066054, 0.0 ], [ 141.893005371500806, 58.539001464945727, 0.0 ], [ 141.988006592230505, 59.008998870901223, 0.0 ], [ 142.085998535404201, 59.479000091780847, 0.0 ], [ 142.186996459818801, 59.948001861896437, 0.0 ], [ 142.942993163803493, 60.282001495672553, 0.0 ], [ 143.714996337910804, 60.611000060704271, 0.0 ], [ 144.501998901528196, 60.935001373714499, 0.0 ], [ 145.305999756183809, 61.255001067845058, 0.0 ], [ 146.126007080062806, 61.569999695029942, 0.0 ], [ 146.962997436182803, 61.88000106839462, 0.0 ], [ 146.498992919887399, 62.734001159426043, 0.0 ], [ 146.00799560581271, 63.587001800592702, 0.0 ], [ 145.486999511818112, 64.43800354023125, 0.0 ], [ 144.932006835746989, 65.286003112653589, 0.0 ], [ 144.343994140617212, 65.803001403591963, 0.0 ], [ 143.73100280803331, 66.318000793901547, 0.0 ], [ 142.503005981640911, 66.653999328306384, 0.0 ], [ 141.242004394087502, 66.978996277156511, 0.0 ] ] ] } },
{ "type": "Feature", "properties": { "Name": "Australian:Sunda", "Description": "<html xmlns:fo=\"http://www.w3.org/1999/XSL/Format\" xmlns:msxsl=\"urn:schemas-microsoft-com:xslt\">\n<head>\n<META http-equiv=\"Content-Type\" content=\"text/html\">\n<meta http-equiv=\"content-type\" content=\"text/html; charset=UTF-8\">\n</head>\n<body style=\"margin:0px 0px 0px 0px;overflow:auto;background:#FFFFFF;\">\n<table style=\"font-family:Arial,Verdana,Times;font-size:12px;text-align:left;width:100%;border-collapse:collapse;padding:3px 3px 3px 3px\">\n<tr style=\"text-align:center;font-weight:bold;background:#9CBCE2\">\n<td>Australian:Sunda</td>\n</tr>\n<tr>\n<td>\n<table style=\"font-family:Arial,Verdana,Times;font-size:12px;text-align:left;width:100%;border-spacing:0px; padding:3px 3px 3px 3px\">\n<tr>\n<td>NAME</td>\n<td>Australian:Sunda</td>\n</tr>\n<tr bgcolor=\"#D4E4F3\">\n<td>LABEL</td>\n<td>Other</td>\n</tr>\n</table>\n</td>\n</tr>\n</table>\n</body>\n</html>", "LABEL": "Other" }, "geometry": { "type": "MultiLineString", "coordinates": [ [ [ 129.651992797829394, -6.815000056607289, 0.0 ], [ 129.850006103299108, -6.590000152385073, 0.0 ], [ 130.121002196894011, -6.33400011001703, 0.0 ], [ 130.359042270784187, -6.084582598707925, 0.0 ], [ 130.658604410964813, -5.773100153449263, 0.0 ], [ 130.992731413024302, -5.490308226343529, 0.0 ], [ 131.384466519414502, -5.247806635567713, 0.0 ], [ 131.695550279921605, -5.074532452910319, 0.0 ], [ 132.117802111878092, -4.899024777871148, 0.0 ], [ 132.650599223975092, -4.788449599769194, 0.0 ], [ 133.036417821925113, -4.677856303925239, 0.0 ], [ 133.458981048636588, -4.548808448451098, 0.0 ], [ 133.918288904109687, -4.401296525714031, 0.0 ], [ 134.230618245435693, -4.272199256990064, 0.0 ], [ 134.675537099257809, -4.130767000396702, 0.0 ], [ 135.002255442234997, -3.866324686534995, 0.0 ], [ 135.369701726253794, -3.73714048574476, 0.0 ], [ 135.663658752749313, -3.626395798926922, 0.0 ], [ 135.847381894758712, -3.460253121384369, 0.0 ], [ 136.031105037667402, -3.127880601308675, 0.0 ], [ 136.2699451214703, -2.832348348397488, 0.0 ], [ 136.600646777626707, -2.407388842121293, 0.0 ], [ 136.966827098591807, -1.837462000770699, 0.0 ], [ 137.243677774209999, -1.464642452786904, 0.0 ] ] ] } },
{ "type": "Feature", "properties": { "Name": "Eurasian:Indian", "Description": "<html xmlns:fo=\"http://www.w3.org/1999/XSL/Format\" xmlns:msxsl=\"urn:schemas-microsoft-com:xslt\">\n<head>\n<META http-equiv=\"Content-Type\" content=\"text/html\">\n<meta http-equiv=\"content-type\" content=\"text/html; charset=UTF-8\">\n</head>\n<body style=\"margin:0px 0px 0px 0px;overflow:auto;background:#FFFFFF;\">\n<table style=\"font-family:Arial,Verdana,Times;font-size:12px;text-align:left;width:100%;border-collapse:collapse;padding:3px 3px 3px 3px\">\n<tr style=\"text-align:center;font-weight:bold;background:#9CBCE2\">\n<td>Eurasian:Indian</td>\n</tr>\n<tr>\n<td>\n<table style=\"font-family:Arial,Verdana,Times;font-size:12px;text-align:left;width:100%;border-spacing:0px; padding:3px 3px 3px 3px\">\n<tr>\n<td>NAME</td>\n<td>Eurasian:Indian</td>\n</tr>\n<tr bgcolor=\"#D4E4F3\">\n<td>LABEL</td>\n<td>Other</td>\n</tr>\n</table>\n</td>\n</tr>\n</table>\n</body>\n</html>", "LABEL": "Other" }, "geometry": { "type": "MultiLineString", "coordinates": [ [ [ 94.054657002618626, 23.525522652548428, 0.0 ], [ 94.002930109237184, 23.349132125647149, 0.0 ], [ 93.932392164067153, 23.19629990901365, 0.0 ], [ 93.903901476172223, 23.033583564829708, 0.0 ], [ 93.96737748688156, 22.73207251103759, 0.0 ], [ 93.959442986104989, 22.565447981239402, 0.0 ], [ 93.943573982753151, 22.295674933251629, 0.0 ], [ 93.903901476172223, 22.05763989106816, 0.0 ], [ 93.888032472820441, 21.883080859594031, 0.0 ], [ 93.903901476172223, 21.724390831471741, 0.0 ], [ 94.062591504294573, 21.53396279754514, 0.0 ], [ 94.070526005970464, 21.327665761165971, 0.0 ], [ 94.030853498490217, 20.986482199893661, 0.0 ] ] ] } },
{ "type": "Feature", "properties": { "Name": "North American:Pacific", "Description": "<html xmlns:fo=\"http://www.w3.org/1999/XSL/Format\" xmlns:msxsl=\"urn:schemas-microsoft-com:xslt\">\n<head>\n<META http-equiv=\"Content-Type\" content=\"text/html\">\n<meta http-equiv=\"content-type\" content=\"text/html; charset=UTF-8\">\n</head>\n<body style=\"margin:0px 0px 0px 0px;overflow:auto;background:#FFFFFF;\">\n<table style=\"font-family:Arial,Verdana,Times;font-size:12px;text-align:left;width:100%;border-collapse:collapse;padding:3px 3px 3px 3px\">\n<tr style=\"text-align:center;font-weight:bold;background:#9CBCE2\">\n<td>North American:Pacific</td>\n</tr>\n<tr>\n<td>\n<table style=\"font-family:Arial,Verdana,Times;font-size:12px;text-align:left;width:100%;border-spacing:0px; padding:3px 3px 3px 3px\">\n<tr>\n<td>NAME</td>\n<td>North American:Pacific</td>\n</tr>\n<tr bgcolor=\"#D4E4F3\">\n<td>LABEL</td>\n<td>Other</td>\n</tr>\n</table>\n</td>\n</tr>\n</table>\n</body>\n</html>", "LABEL": "Other" }, "geometry": { "type": "MultiLineString", "coordinates": [ [ [ -132.714004516295404, 53.126998901578077, 0.0 ], [ -133.093002319501409, 53.521999359083232, 0.0 ], [ -133.4259948726652, 53.923999785961428, 0.0 ] ] ] } },
{ "type": "Feature", "properties": { "Name": "Eurasian:African", "Description": "<html xmlns:fo=\"http://www.w3.org/1999/XSL/Format\" xmlns:msxsl=\"urn:schemas-microsoft-com:xslt\">\n<head>\n<META http-equiv=\"Content-Type\" content=\"text/html\">\n<meta http-equiv=\"content-type\" content=\"text/html; charset=UTF-8\">\n</head>\n<body style=\"margin:0px 0px 0px 0px;overflow:auto;background:#FFFFFF;\">\n<table style=\"font-family:Arial,Verdana,Times;font-size:12px;text-align:left;width:100%;border-collapse:collapse;padding:3px 3px 3px 3px\">\n<tr style=\"text-align:center;font-weight:bold;background:#9CBCE2\">\n<td>Eurasian:African</td>\n</tr>\n<tr>\n<td>\n<table style=\"font-family:Arial,Verdana,Times;font-size:12px;text-align:left;width:100%;border-spacing:0px; padding:3px 3px 3px 3px\">\n<tr>\n<td>NAME</td>\n<td>Eurasian:African</td>\n</tr>\n<tr bgcolor=\"#D4E4F3\">\n<td>LABEL</td>\n<td>Other</td>\n</tr>\n</table>\n</td>\n</tr>\n</table>\n</body>\n</html>", "LABEL": "Other" }, "geometry": { "type": "MultiLineString", "coordinates": [ [ [ 36.789334333113061, 37.397551534575712, 0.0 ], [ 36.505802879099633, 37.172636949036018, 0.0 ], [ 36.302251188741423, 36.935159976651683, 0.0 ], [ 36.11566213849693, 36.66941193621193, 0.0 ], [ 35.872530953041121, 36.465860245853719, 0.0 ], [ 35.759446680819742, 36.301888050593107, 0.0 ], [ 35.756857853707061, 36.255289169759408, 0.0 ] ] ] } },
{ "type": "Feature", "properties": { "Name": "Australian:Sunda", "Description": "<html xmlns:fo=\"http://www.w3.org/1999/XSL/Format\" xmlns:msxsl=\"urn:schemas-microsoft-com:xslt\">\n<head>\n<META http-equiv=\"Content-Type\" content=\"text/html\">\n<meta http-equiv=\"content-type\" content=\"text/html; charset=UTF-8\">\n</head>\n<body style=\"margin:0px 0px 0px 0px;overflow:auto;background:#FFFFFF;\">\n<table style=\"font-family:Arial,Verdana,Times;font-size:12px;text-align:left;width:100%;border-collapse:collapse;padding:3px 3px 3px 3px\">\n<tr style=\"text-align:center;font-weight:bold;background:#9CBCE2\">\n<td>Australian:Sunda</td>\n</tr>\n<tr>\n<td>\n<table style=\"font-family:Arial,Verdana,Times;font-size:12px;text-align:left;width:100%;border-spacing:0px; padding:3px 3px 3px 3px\">\n<tr>\n<td>NAME</td>\n<td>Australian:Sunda</td>\n</tr>\n<tr bgcolor=\"#D4E4F3\">\n<td>LABEL</td>\n<td>Convergent Boundary</td>\n</tr>\n</table>\n</td>\n</tr>\n</table>\n</body>\n</html>", "LABEL": "Convergent Boundary" }, "geometry": { "type": "MultiLineString", "coordinates": [ [ [ 132.650599223975092, -6.922530161737541, 0.0 ], [ 132.154546740639603, -6.867448376241498, 0.0 ], [ 131.621749628542602, -6.830723592819481, 0.0 ], [ 131.199186401831099, -6.812360128217279, 0.0 ], [ 130.739878546357886, -6.867448376241498, 0.0 ], [ 130.225453749091287, -6.867448376241498, 0.0 ], [ 129.747773579686992, -6.885809692363353, 0.0 ], [ 129.538780322753695, -6.933276383897976, 0.0 ], [ 129.343582666906599, -6.977605433443955, 0.0 ], [ 128.939391755025611, -7.087736234939257, 0.0 ], [ 128.519745098957202, -7.142593000166755, 0.0 ], [ 128.131009929464796, -7.344603721084809, 0.0 ], [ 127.7819359602764, -7.417967049239906, 0.0 ], [ 127.363205099136096, -7.504107999884241, 0.0 ], [ 126.7898309927062, -7.58298905909777, 0.0 ], [ 126.449425098589501, -7.618293000021879, 0.0 ], [ 126.051895099079601, -7.688948000050118, 0.0 ], [ 125.779353712104196, -7.674640350171956, 0.0 ], [ 125.411907427186094, -7.692968215110966, 0.0 ], [ 125.062833457997698, -7.729621534805915, 0.0 ], [ 124.640270231286195, -7.78459546460897, 0.0 ], [ 124.309568575129703, -7.876202423602933, 0.0 ], [ 123.905377663248601, -7.931156763473837, 0.0 ], [ 123.427697493844306, -7.986103664152722, 0.0 ], [ 123.041878894995094, -8.059354540179811, 0.0 ], [ 122.490709468966898, -8.114283888790396, 0.0 ], [ 121.879997253170799, -8.100000382111887, 0.0 ], [ 121.339996337660907, -8.109999657058495, 0.0 ], [ 120.819999694430393, -8.060000419783478, 0.0 ], [ 120.360000610140105, -8.039999961528963, 0.0 ], [ 119.800003051299896, -7.989999770972588, 0.0 ], [ 119.360000610339995, -8.01000022922716, 0.0 ], [ 118.860000610439897, -7.989999770972588, 0.0 ], [ 118.440002441759404, -8.039999961528963, 0.0 ], [ 118.080001831119702, -8.020000457455126, 0.0 ], [ 117.680000304870205, -8.029999732401677, 0.0 ], [ 117.139999390259703, -8.029999732401677, 0.0 ], [ 116.685058181290103, -8.041043075277628, 0.0 ], [ 116.300003051999298, -7.929999827929692, 0.0 ], [ 115.931793298421994, -7.931156763473837, 0.0 ] ] ] } }
]
}
